ONEWEB-0436             
1 51633U 22012M   26147.10196062  .00000062  00000+0  12686-3 0  9993
2 51633  87.9159  10.0373 0001669  79.0747 281.0572 13.17649588210908
ONEWEB-0438             
1 51634U 22012N   26147.25703534 -.00000262  00000+0 -78634-3 0  9997
2 51634  87.8847  40.4478 0001973  82.2753 277.8598 13.10370934206608
ONEWEB-0439             
1 51635U 22012P   26147.26035169 -.00000362  00000+0 -10721-2 0  9994
2 51635  87.8846  40.4348 0001893  77.0531 283.0808 13.10371542206587
ONEWEB-0442             
1 51636U 22012Q   26147.17029586  .00000079  00000+0  17006-3 0  9998
2 51636  87.9155  10.0578 0002328  92.5491 267.5907 13.17648212210907
ONEWEB-0443             
1 51637U 22012R   26147.11376222 -.00000137  00000+0 -38615-3 0  9991
2 51637  87.9152  10.0707 0002079  77.1351 283.0012 13.17649084210948
ONEWEB-0444             
1 51638U 22012S   26147.25040042 -.00000066  00000+0 -22418-3 0  9990
2 51638  87.8846  40.4356 0001957  76.8280 283.3066 13.10370284206590
ONEWEB-0445             
1 51639U 22012T   26147.19560799 -.00000650  00000+0 -18973-2 0  9999
2 51639  87.8861  40.4325 0001679  85.3587 274.7732 13.10373977206596
ONEWEB-0446             
1 51640U 22012U   26147.24874161  .00000058  00000+0  12944-3 0  9991
2 51640  87.8848  40.4527 0001766  84.5925 275.5404 13.10370437206583
ONEWEB-0448             
1 51641U 22012V   26147.25371670 -.00000163  00000+0 -50428-3 0  9998
2 51641  87.8846  40.4486 0001861  77.4357 282.6979 13.10369192206551
ONEWEB-0449             
1 51642U 22012W   26147.25869554 -.00000426  00000+0 -12562-2 0  9990
2 51642  87.8849  40.4324 0002269  82.7863 277.3522 13.10370843206561
ONEWEB-0451             
1 51643U 22012X   26147.17453145  .00000040  00000+0  69164-4 0  9999
2 51643  87.9163  10.0201 0002080  85.5638 274.5731 13.17648948210894
ONEWEB-0452             
1 51644U 22012Y   26147.17283692  .00000021  00000+0  20052-4 0  9990
2 51644  87.9153  10.0591 0002105  79.7690 280.3679 13.17649879210909
ONEWEB-0456             
1 51646U 22012AA  26147.19230300 -.00000621  00000+0 -18146-2 0  9999
2 51646  87.8861  40.4310 0001726  73.9365 286.1953 13.10378801206591
ONEWEB-0457             
1 51647U 22012AB  26147.24526420  .00000274  00000+0  74945-3 0  9999
2 51647  87.8847  40.4409 0001911  92.8165 267.3181 13.10368331206602
ONEWEB-0458             
1 51648U 22012AC  26147.19062931 -.00000573  00000+0 -16771-2 0  9992
2 51648  87.8861  40.4377 0001985  78.1689 281.9660 13.10371937206556
ONEWEB-0461             
1 51649U 22012AD  26147.19476727  .00000078  00000+0  16693-3 0  9997
2 51649  87.9160  10.0303 0001781  88.2459 271.8876 13.17650550211127
