[{"OBJECT_NAME":"ONEWEB-0436","OBJECT_ID":"2022-012M","EPOCH":"2026-05-27T02:26:49.397568","MEAN_MOTION":13.17649588,"ECCENTRICITY":0.0001669,"INCLINATION":87.9159,"RA_OF_ASC_NODE":10.0373,"ARG_OF_PERICENTER":79.0747,"MEAN_ANOMALY":281.0572,"EPHEMERIS_TYPE":0,"CLASSIFICATION_TYPE":"U","NORAD_CAT_ID":51633,"ELEMENT_SET_NO":999,"REV_AT_EPOCH":21090,"BSTAR":0.00012686000000000002,"MEAN_MOTION_DOT":6.2e-07,"MEAN_MOTION_DDOT":0.0},{"OBJECT_NAME":"ONEWEB-0438","OBJECT_ID":"2022-012N","EPOCH":"2026-05-27T06:10:07.853376","MEAN_MOTION":13.10370934,"ECCENTRICITY":0.0001973,"INCLINATION":87.8847,"RA_OF_ASC_NODE":40.4478,"ARG_OF_PERICENTER":82.2753,"MEAN_ANOMALY":277.8598,"EPHEMERIS_TYPE":0,"CLASSIFICATION_TYPE":"U","NORAD_CAT_ID":51634,"ELEMENT_SET_NO":999,"REV_AT_EPOCH":20660,"BSTAR":-0.0007863400000000001,"MEAN_MOTION_DOT":-2.62e-06,"MEAN_MOTION_DDOT":0.0},{"OBJECT_NAME":"ONEWEB-0439","OBJECT_ID":"2022-012P","EPOCH":"2026-05-27T06:14:54.386016","MEAN_MOTION":13.10371542,"ECCENTRICITY":0.0001893,"INCLINATION":87.8846,"RA_OF_ASC_NODE":40.4348,"ARG_OF_PERICENTER":77.0531,"MEAN_ANOMALY":283.0808,"EPHEMERIS_TYPE":0,"CLASSIFICATION_TYPE":"U","NORAD_CAT_ID":51635,"ELEMENT_SET_NO":999,"REV_AT_EPOCH":20658,"BSTAR":-0.0010721,"MEAN_MOTION_DOT":-3.62e-06,"MEAN_MOTION_DDOT":0.0},{"OBJECT_NAME":"ONEWEB-0442","OBJECT_ID":"2022-012Q","EPOCH":"2026-05-27T04:05:13.562304","MEAN_MOTION":13.17648212,"ECCENTRICITY":0.0002328,"INCLINATION":87.9155,"RA_OF_ASC_NODE":10.0578,"ARG_OF_PERICENTER":92.5491,"MEAN_ANOMALY":267.5907,"EPHEMERIS_TYPE":0,"CLASSIFICATION_TYPE":"U","NORAD_CAT_ID":51636,"ELEMENT_SET_NO":999,"REV_AT_EPOCH":21090,"BSTAR":0.00017005999999999998,"MEAN_MOTION_DOT":7.9e-07,"MEAN_MOTION_DDOT":0.0},{"OBJECT_NAME":"ONEWEB-0443","OBJECT_ID":"2022-012R","EPOCH":"2026-05-27T02:43:49.055808","MEAN_MOTION":13.17649084,"ECCENTRICITY":0.0002079,"INCLINATION":87.9152,"RA_OF_ASC_NODE":10.0707,"ARG_OF_PERICENTER":77.1351,"MEAN_ANOMALY":283.0012,"EPHEMERIS_TYPE":0,"CLASSIFICATION_TYPE":"U","NORAD_CAT_ID":51637,"ELEMENT_SET_NO":999,"REV_AT_EPOCH":21094,"BSTAR":-0.00038615,"MEAN_MOTION_DOT":-1.37e-06,"MEAN_MOTION_DDOT":0.0},{"OBJECT_NAME":"ONEWEB-0444","OBJECT_ID":"2022-012S","EPOCH":"2026-05-27T06:00:34.596288","MEAN_MOTION":13.10370284,"ECCENTRICITY":0.0001957,"INCLINATION":87.8846,"RA_OF_ASC_NODE":40.4356,"ARG_OF_PERICENTER":76.828,"MEAN_ANOMALY":283.3066,"EPHEMERIS_TYPE":0,"CLASSIFICATION_TYPE":"U","NORAD_CAT_ID":51638,"ELEMENT_SET_NO":999,"REV_AT_EPOCH":20659,"BSTAR":-0.00022417999999999998,"MEAN_MOTION_DOT":-6.6e-07,"MEAN_MOTION_DDOT":0.0},{"OBJECT_NAME":"ONEWEB-0445","OBJECT_ID":"2022-012T","EPOCH":"2026-05-27T04:41:40.530336","MEAN_MOTION":13.10373977,"ECCENTRICITY":0.0001679,"INCLINATION":87.8861,"RA_OF_ASC_NODE":40.4325,"ARG_OF_PERICENTER":85.3587,"MEAN_ANOMALY":274.7732,"EPHEMERIS_TYPE":0,"CLASSIFICATION_TYPE":"U","NORAD_CAT_ID":51639,"ELEMENT_SET_NO":999,"REV_AT_EPOCH":20659,"BSTAR":-0.0018973000000000002,"MEAN_MOTION_DOT":-6.5e-06,"MEAN_MOTION_DDOT":0.0},{"OBJECT_NAME":"ONEWEB-0446","OBJECT_ID":"2022-012U","EPOCH":"2026-05-27T05:58:11.275104","MEAN_MOTION":13.10370437,"ECCENTRICITY":0.0001766,"INCLINATION":87.8848,"RA_OF_ASC_NODE":40.4527,"ARG_OF_PERICENTER":84.5925,"MEAN_ANOMALY":275.5404,"EPHEMERIS_TYPE":0,"CLASSIFICATION_TYPE":"U","NORAD_CAT_ID":51640,"ELEMENT_SET_NO":999,"REV_AT_EPOCH":20658,"BSTAR":0.00012944,"MEAN_MOTION_DOT":5.8e-07,"MEAN_MOTION_DDOT":0.0},{"OBJECT_NAME":"ONEWEB-0448","OBJECT_ID":"2022-012V","EPOCH":"2026-05-27T06:05:21.122880","MEAN_MOTION":13.10369192,"ECCENTRICITY":0.0001861,"INCLINATION":87.8846,"RA_OF_ASC_NODE":40.4486,"ARG_OF_PERICENTER":77.4357,"MEAN_ANOMALY":282.6979,"EPHEMERIS_TYPE":0,"CLASSIFICATION_TYPE":"U","NORAD_CAT_ID":51641,"ELEMENT_SET_NO":999,"REV_AT_EPOCH":20655,"BSTAR":-0.00050428,"MEAN_MOTION_DOT":-1.63e-06,"MEAN_MOTION_DDOT":0.0},{"OBJECT_NAME":"ONEWEB-0449","OBJECT_ID":"2022-012W","EPOCH":"2026-05-27T06:12:31.294656","MEAN_MOTION":13.10370843,"ECCENTRICITY":0.0002269,"INCLINATION":87.8849,"RA_OF_ASC_NODE":40.4324,"ARG_OF_PERICENTER":82.7863,"MEAN_ANOMALY":277.3522,"EPHEMERIS_TYPE":0,"CLASSIFICATION_TYPE":"U","NORAD_CAT_ID":51642,"ELEMENT_SET_NO":999,"REV_AT_EPOCH":20656,"BSTAR":-0.0012562,"MEAN_MOTION_DOT":-4.26e-06,"MEAN_MOTION_DDOT":0.0},{"OBJECT_NAME":"ONEWEB-0451","OBJECT_ID":"2022-012X","EPOCH":"2026-05-27T04:11:19.517280","MEAN_MOTION":13.17648948,"ECCENTRICITY":0.000208,"INCLINATION":87.9163,"RA_OF_ASC_NODE":10.0201,"ARG_OF_PERICENTER":85.5638,"MEAN_ANOMALY":274.5731,"EPHEMERIS_TYPE":0,"CLASSIFICATION_TYPE":"U","NORAD_CAT_ID":51643,"ELEMENT_SET_NO":999,"REV_AT_EPOCH":21089,"BSTAR":6.9164e-05,"MEAN_MOTION_DOT":4e-07,"MEAN_MOTION_DDOT":0.0},{"OBJECT_NAME":"ONEWEB-0452","OBJECT_ID":"2022-012Y","EPOCH":"2026-05-27T04:08:53.109888","MEAN_MOTION":13.17649879,"ECCENTRICITY":0.0002105,"INCLINATION":87.9153,"RA_OF_ASC_NODE":10.0591,"ARG_OF_PERICENTER":79.769,"MEAN_ANOMALY":280.3679,"EPHEMERIS_TYPE":0,"CLASSIFICATION_TYPE":"U","NORAD_CAT_ID":51644,"ELEMENT_SET_NO":999,"REV_AT_EPOCH":21090,"BSTAR":2.0052e-05,"MEAN_MOTION_DOT":2.1e-07,"MEAN_MOTION_DDOT":0.0},{"OBJECT_NAME":"ONEWEB-0456","OBJECT_ID":"2022-012AA","EPOCH":"2026-05-27T04:36:54.979200","MEAN_MOTION":13.10378801,"ECCENTRICITY":0.0001726,"INCLINATION":87.8861,"RA_OF_ASC_NODE":40.431,"ARG_OF_PERICENTER":73.9365,"MEAN_ANOMALY":286.1953,"EPHEMERIS_TYPE":0,"CLASSIFICATION_TYPE":"U","NORAD_CAT_ID":51646,"ELEMENT_SET_NO":999,"REV_AT_EPOCH":20659,"BSTAR":-0.0018146000000000002,"MEAN_MOTION_DOT":-6.21e-06,"MEAN_MOTION_DDOT":0.0},{"OBJECT_NAME":"ONEWEB-0457","OBJECT_ID":"2022-012AB","EPOCH":"2026-05-27T05:53:10.826880","MEAN_MOTION":13.10368331,"ECCENTRICITY":0.0001911,"INCLINATION":87.8847,"RA_OF_ASC_NODE":40.4409,"ARG_OF_PERICENTER":92.8165,"MEAN_ANOMALY":267.3181,"EPHEMERIS_TYPE":0,"CLASSIFICATION_TYPE":"U","NORAD_CAT_ID":51647,"ELEMENT_SET_NO":999,"REV_AT_EPOCH":20660,"BSTAR":0.0007494499999999999,"MEAN_MOTION_DOT":2.74e-06,"MEAN_MOTION_DDOT":0.0},{"OBJECT_NAME":"ONEWEB-0458","OBJECT_ID":"2022-012AC","EPOCH":"2026-05-27T04:34:30.372384","MEAN_MOTION":13.10371937,"ECCENTRICITY":0.0001985,"INCLINATION":87.8861,"RA_OF_ASC_NODE":40.4377,"ARG_OF_PERICENTER":78.1689,"MEAN_ANOMALY":281.966,"EPHEMERIS_TYPE":0,"CLASSIFICATION_TYPE":"U","NORAD_CAT_ID":51648,"ELEMENT_SET_NO":999,"REV_AT_EPOCH":20655,"BSTAR":-0.0016771,"MEAN_MOTION_DOT":-5.73e-06,"MEAN_MOTION_DDOT":0.0},{"OBJECT_NAME":"ONEWEB-0461","OBJECT_ID":"2022-012AD","EPOCH":"2026-05-27T04:40:27.892128","MEAN_MOTION":13.1765055,"ECCENTRICITY":0.0001781,"INCLINATION":87.916,"RA_OF_ASC_NODE":10.0303,"ARG_OF_PERICENTER":88.2459,"MEAN_ANOMALY":271.8876,"EPHEMERIS_TYPE":0,"CLASSIFICATION_TYPE":"U","NORAD_CAT_ID":51649,"ELEMENT_SET_NO":999,"REV_AT_EPOCH":21112,"BSTAR":0.00016693,"MEAN_MOTION_DOT":7.8e-07,"MEAN_MOTION_DDOT":0.0}]